OBJECT_NAME,OBJECT_ID,EPOCH,MEAN_MOTION,ECCENTRICITY,INCLINATION,RA_OF_ASC_NODE,ARG_OF_PERICENTER,MEAN_ANOMALY,EPHEMERIS_TYPE,CLASSIFICATION_TYPE,NORAD_CAT_ID,ELEMENT_SET_NO,REV_AT_EPOCH,BSTAR,MEAN_MOTION_DOT,MEAN_MOTION_DDOT
STARLINK-6264,2023-061BH,2026-07-12T08:43:47.604288,15.27572728,.00012412,43.0006,195.7377,265.1434,94.9276,0,U,56429,999,17602,.12256775E-4,.75E-6,0
STARLINK-5990,2023-064A,2026-07-12T11:01:55.395552,14.98456931,.00043843,70.0008,189.9338,254.3936,105.6740,0,U,56448,999,17393,-.20078806E-2,-.2405E-3,0
STARLINK-5993,2023-064B,2026-07-12T09:55:36.551136,14.98327736,.00034852,69.9992,190.1736,268.3203,91.7557,0,U,56449,999,17392,.41003901E-4,.396E-5,0
STARLINK-5970,2023-064C,2026-07-12T09:19:45.544512,14.98328123,.00030293,69.9989,190.0873,269.8366,90.2446,0,U,56450,999,17392,-.43733408E-4,-.615E-5,0
STARLINK-5985,2023-064D,2026-07-12T09:49:33.261600,14.98334935,.00039556,69.9990,190.1590,261.0731,98.9980,0,U,56451,999,17392,.12206019E-3,.1364E-4,0
STARLINK-5986,2023-064E,2026-07-12T09:43:33.553344,14.98330555,.0003507,69.9998,190.1456,267.0820,92.9938,0,U,56452,999,17392,.23912214E-4,.192E-5,0
STARLINK-5935,2023-064F,2026-07-12T09:37:32.875680,14.98333047,.00036382,70.0016,190.1305,264.9956,95.0787,0,U,56453,999,17392,.8259841E-5,.5E-7,0
STARLINK-5959,2023-064G,2026-07-12T10:43:39.059904,14.98323073,.00036213,69.9998,189.8883,272.1517,87.9228,0,U,56454,999,17393,.12930318E-4,.61E-6,0
STARLINK-5987,2023-064H,2026-07-12T09:01:30.288000,14.98330766,.00036365,69.9992,190.0415,265.3172,94.7571,0,U,56455,999,17392,.53287008E-4,.543E-5,0
STARLINK-5995,2023-064J,2026-07-12T09:19:32.455776,14.98332258,.00034943,70.0002,190.0814,277.4147,82.6615,0,U,56456,999,17392,.13091786E-3,.1469E-4,0
STARLINK-5994,2023-064K,2026-07-12T09:13:31.524960,14.98335229,.00033075,70.0000,190.0703,268.1365,91.9416,0,U,56457,999,17392,.20321437E-4,.149E-5,0
STARLINK-6050,2023-064L,2026-07-12T09:25:31.787328,14.98335601,.00041017,69.9995,190.0993,259.5122,100.5575,0,U,56458,999,17392,.29496058E-4,.259E-5,0
STARLINK-6048,2023-064M,2026-07-11T10:11:47.889312,14.98330730,.00036588,69.9986,192.3409,264.7703,95.3039,0,U,56459,999,17377,.20739707E-4,.154E-5,0
STARLINK-6047,2023-064N,2026-07-12T10:31:37.163712,14.98336976,.00037064,69.9991,189.8589,262.2189,97.8550,0,U,56460,999,17393,.45906652E-4,.455E-5,0
STARLINK-6037,2023-064P,2026-07-12T10:07:34.827168,14.98321913,.00036776,69.9991,189.7999,262.7307,97.3434,0,U,56461,999,17393,-.51747657E-4,-.71E-5,0
STARLINK-6045,2023-064Q,2026-07-11T07:22:53.623776,14.98326912,.00032364,69.9992,152.5639,262.0338,98.0453,0,U,56462,999,17475,-.11444626E-3,-.1458E-4,0
STARLINK-6051,2023-064R,2026-07-12T09:31:30.743040,14.98356100,.00036383,69.9993,190.1068,270.1838,89.8904,0,U,56463,999,17392,.27990811E-3,.3251E-4,0
STARLINK-6043,2023-064S,2026-07-12T10:25:37.340544,14.98332213,.00036728,69.9990,189.8442,270.6265,89.4473,0,U,56464,999,17393,.70597897E-4,.749E-5,0
STARLINK-6054,2023-064T,2026-07-12T07:36:41.303808,14.98337827,.00035521,70.0001,150.0660,260.2867,99.7891,0,U,56465,999,17490,.93149515E-4,.1019E-4,0
STARLINK-6053,2023-064U,2026-07-12T10:13:34.456800,14.98335769,.00036691,69.9983,189.8154,268.2265,91.8473,0,U,56466,999,17392,.31216452E-4,.279E-5,0
STARLINK-6055,2023-064V,2026-07-12T07:31:03.056448,14.98335683,.00030124,69.9990,170.3566,271.6994,88.3820,0,U,56467,999,17440,-.24834803E-3,-.3055E-4,0
STARLINK-5998,2023-064W,2026-07-12T10:01:33.032352,14.98332026,.00037513,69.9987,189.7840,264.1821,95.8910,0,U,56468,999,17393,.22416343E-4,.174E-5,0
STARLINK-5518,2023-064X,2026-07-12T07:49:05.627712,14.98331004,.00035155,69.9990,170.4007,266.0550,94.0207,0,U,56469,999,17440,.52954019E-4,.539E-5,0
STARLINK-5523,2023-064Y,2026-07-12T09:13:11.244288,14.98329809,.00033169,69.9994,170.2027,269.7388,90.3391,0,U,56470,999,17441,-.12638615E-4,-.244E-5,0
STARLINK-5521,2023-064Z,2026-07-12T09:01:11.028576,14.98331956,.00029725,69.9991,170.1729,269.4041,90.6777,0,U,56471,999,17441,.57075745E-4,.588E-5,0
STARLINK-5038,2023-064AA,2026-07-12T08:49:08.337504,14.98331485,.00036987,69.9999,170.1454,264.8083,95.2655,0,U,56472,999,17441,.17440532E-4,.115E-5,0
STARLINK-5524,2023-064AC,2026-07-11T22:06:15.687360,14.98333029,.000348,69.9994,171.3956,264.6560,95.4202,0,U,56474,999,17434,.31217E-4,.279E-5,0
STARLINK-5541,2023-064AD,2026-07-12T08:43:08.821056,14.98322338,.00034235,69.9991,170.1271,266.5235,93.5532,0,U,56475,999,17441,-.67518691E-4,-.898E-5,0
STARLINK-5545,2023-064AE,2026-07-12T08:55:09.181056,14.98330053,.00032515,69.9996,170.1578,266.4546,93.6241,0,U,56476,999,17441,.3750493E-5,-.48E-6,0
STARLINK-5534,2023-064AF,2026-07-12T08:19:19.392672,14.98323112,.00035862,70.0001,170.0710,264.1780,95.8970,0,U,56477,999,17441,-.10835313E-3,-.1385E-4,0
