STARLINK-6264           
1 56429U 23061BH  26193.36374542  .00000075  00000+0  12257-4 0  9995
2 56429  43.0006 195.7377 0001241 265.1434  94.9276 15.27572728176022
STARLINK-5990           
1 56448U 23064A   26193.45966893 -.00024050  00000+0 -20079-2 0  9995
2 56448  70.0008 189.9338 0004384 254.3936 105.6740 14.98456931173932
STARLINK-5993           
1 56449U 23064B   26193.41361749  .00000396  00000+0  41004-4 0  9999
2 56449  69.9992 190.1736 0003485 268.3203  91.7557 14.98327736173921
STARLINK-5970           
1 56450U 23064C   26193.38872158 -.00000615  00000+0 -43733-4 0  9995
2 56450  69.9989 190.0873 0003029 269.8366  90.2446 14.98328123173922
STARLINK-5985           
1 56451U 23064D   26193.40941275  .00001364  00000+0  12206-3 0  9996
2 56451  69.9990 190.1590 0003955 261.0731  98.9980 14.98334935173926
STARLINK-5986           
1 56452U 23064E   26193.40524946  .00000192  00000+0  23912-4 0  9994
2 56452  69.9998 190.1456 0003507 267.0820  92.9938 14.98330555173925
STARLINK-5935           
1 56453U 23064F   26193.40107495  .00000005  00000+0  82598-5 0  9990
2 56453  70.0016 190.1305 0003638 264.9956  95.0787 14.98333047173929
STARLINK-5959           
1 56454U 23064G   26193.44697986  .00000061  00000+0  12930-4 0  9998
2 56454  69.9998 189.8883 0003621 272.1517  87.9228 14.98323073173937
STARLINK-5987           
1 56455U 23064H   26193.37604500  .00000543  00000+0  53287-4 0  9996
2 56455  69.9992 190.0415 0003636 265.3172  94.7571 14.98330766173927
STARLINK-5995           
1 56456U 23064J   26193.38857009  .00001469  00000+0  13092-3 0  9999
2 56456  70.0002 190.0814 0003494 277.4147  82.6615 14.98332258173927
STARLINK-5994           
1 56457U 23064K   26193.38439265  .00000149  00000+0  20321-4 0  9998
2 56457  70.0000 190.0703 0003307 268.1365  91.9416 14.98335229173928
STARLINK-6050           
1 56458U 23064L   26193.39272902  .00000259  00000+0  29496-4 0  9997
2 56458  69.9995 190.0993 0004101 259.5122 100.5575 14.98335601173925
STARLINK-6048           
1 56459U 23064M   26192.42485983  .00000154  00000+0  20740-4 0  9993
2 56459  69.9986 192.3409 0003658 264.7703  95.3039 14.98330730173779
STARLINK-6047           
1 56460U 23064N   26193.43862458  .00000455  00000+0  45907-4 0  9999
2 56460  69.9991 189.8589 0003706 262.2189  97.8550 14.98336976173933
STARLINK-6037           
1 56461U 23064P   26193.42193087 -.00000710  00000+0 -51748-4 0  9990
2 56461  69.9991 189.7999 0003677 262.7307  97.3434 14.98321913173933
STARLINK-6045           
1 56462U 23064Q   26192.30756509 -.00001458  00000+0 -11445-3 0  9990
2 56462  69.9992 152.5639 0003236 262.0338  98.0453 14.98326912174756
STARLINK-6051           
1 56463U 23064R   26193.39688360  .00003251  00000+0  27991-3 0  9994
2 56463  69.9993 190.1068 0003638 270.1838  89.8904 14.98356100173922
STARLINK-6043           
1 56464U 23064S   26193.43445996  .00000749  00000+0  70598-4 0  9997
2 56464  69.9990 189.8442 0003672 270.6265  89.4473 14.98332213173935
STARLINK-6054           
1 56465U 23064T   26193.31714472  .00001019  00000+0  93150-4 0  9993
2 56465  70.0001 150.0660 0003552 260.2867  99.7891 14.98337827174906
STARLINK-6053           
1 56466U 23064U   26193.42609325  .00000279  00000+0  31216-4 0  9998
2 56466  69.9983 189.8154 0003669 268.2265  91.8473 14.98335769173923
STARLINK-6055           
1 56467U 23064V   26193.31322982 -.00003055  00000+0 -24835-3 0  9993
2 56467  69.9990 170.3566 0003012 271.6994  88.3820 14.98335683174409
STARLINK-5998           
1 56468U 23064W   26193.41774343  .00000174  00000+0  22416-4 0  9998
2 56468  69.9987 189.7840 0003751 264.1821  95.8910 14.98332026173939
STARLINK-5518           
1 56469U 23064X   26193.32575958  .00000539  00000+0  52954-4 0  9995
2 56469  69.9990 170.4007 0003515 266.0550  94.0207 14.98331004174402
STARLINK-5523           
1 56470U 23064Y   26193.38415792 -.00000244  00000+0 -12639-4 0  9993
2 56470  69.9994 170.2027 0003316 269.7388  90.3391 14.98329809174410
STARLINK-5521           
1 56471U 23064Z   26193.37582209  .00000588  00000+0  57076-4 0  9994
2 56471  69.9991 170.1729 0002972 269.4041  90.6777 14.98331956174413
STARLINK-5038           
1 56472U 23064AA  26193.36745761  .00000115  00000+0  17441-4 0  9996
2 56472  69.9999 170.1454 0003698 264.8083  95.2655 14.98331485174411
STARLINK-5524           
1 56474U 23064AC  26192.92101490  .00000279  00000+0  31217-4 0  9992
2 56474  69.9994 171.3956 0003480 264.6560  95.4202 14.98333029174343
STARLINK-5541           
1 56475U 23064AD  26193.36329654 -.00000898  00000+0 -67519-4 0  9999
2 56475  69.9991 170.1271 0003423 266.5235  93.5532 14.98322338174419
STARLINK-5545           
1 56476U 23064AE  26193.37163404 -.00000048  00000+0  37505-5 0  9999
2 56476  69.9996 170.1578 0003251 266.4546  93.6241 14.98330053174419
STARLINK-5534           
1 56477U 23064AF  26193.34675223 -.00001385  00000+0 -10835-3 0  9995
2 56477  70.0001 170.0710 0003586 264.1780  95.8970 14.98323112174414
